DMSP 5D-2 F14 (USA 131) 
1 24753U 97012A   20026.42180720  .00000022  00000-0  34501-4 0  9995
2 24753  99.0283  41.2905 0007917 248.8675 111.1653 14.15883661177971
NOAA 15                 
1 25338U 98030A   20027.13347514  .00000016  00000-0  25349-4 0  9994
2 25338  98.7308  52.8071 0009710 320.9581  39.0896 14.25948866128948
DMSP 5D-3 F15 (USA 147) 
1 25991U 99067A   20026.88709381 -.00000117  00000-0 -35795-4 0  9995
2 25991  98.9502 357.3086 0010323 141.5763 226.4803 14.16499531 40269
METEOSAT-8 (MSG-1)      
1 27509U 02040B   20026.81391939  .00000132  00000-0  00000+0 0  9997
2 27509   6.4768  54.6977 0001253 228.1913 176.9817  1.00269592 63856
DMSP 5D-3 F16 (USA 172) 
1 28054U 03048A   20026.84046480 -.00000108  00000-0 -33523-4 0  9999
2 28054  98.8949   6.5118 0006537 268.6798 206.8253 14.13669893839743
NOAA 18                 
1 28654U 05018A   20026.78339252  .00000083  00000-0  69979-4 0  9993
2 28654  99.0660  81.7376 0013347 272.6706  87.2937 14.12484177756864
METEOSAT-9 (MSG-2)      
1 28912U 05049B   20026.34641140  .00000012  00000-0  00000+0 0  9995
2 28912   4.1237  70.6750 0000960  11.8825 170.7325  1.00277938 51677
HIMAWARI-7 (MTSAT-2)    
1 28937U 06004A   20026.80548779 -.00000248  00000-0  00000+0 0  9991
2 28937   0.0707 280.6432 0002789   9.0256 270.8208  1.00274179 50955
FORMOSAT-3 FM6          
1 29047U 06011A   20026.36359058 -.00000036  00000-0  21471-5 0  9999
2 29047  71.9770  42.0387 0052335 306.7445  52.8891 14.28708405720894
FORMOSAT-3 FM1          
1 29048U 06011B   20027.14923499  .00000018  00000-0  23461-4 0  9992
2 29048  71.9678 311.5131 0045953 264.8982  94.6908 14.28676060723483
FORMOSAT-3 FM5          
1 29049U 06011C   20026.38807281  .00000041  00000-0  32312-4 0  9999
2 29049  72.0209 123.9028 0036961 293.0821  66.6421 14.28758884719165
FORMOSAT-3 FM3          
1 29050U 06011D   20026.17588499  .00000059  00000-0  22875-4 0  9997
2 29050  72.0159 285.0674 0051586 226.6602 133.0246 14.58871791735536
FORMOSAT-3 FM4          
1 29051U 06011E   20027.16137100  .00000007  00000-0  18707-4 0  9999
2 29051  72.0056  24.6514 0068111 172.9365 187.2748 14.28787389721869
FORMOSAT-3 FM2          
1 29052U 06011F   20027.17114459  .00000038  00000-0  30960-4 0  9992
2 29052  72.0346  98.4165 0042341 253.6790 105.9689 14.28890598720192
GOES 13                 
1 29155U 06018A   20026.21230122 -.00000126  00000-0  00000+0 0  9999
2 29155   0.3407  93.5301 0008552 176.5157  16.5758  0.99974237 50109
METOP-A                 
1 29499U 06044A   20027.18378517  .00000003  00000-0  20800-4 0  9995
2 29499  98.5448  78.6966 0000725  69.1519   4.8390 14.21494412688671
DMSP 5D-3 F17 (USA 191) 
1 29522U 06050A   20027.11657290  .00000000  00000-0  23268-4 0  9998
2 29522  98.8098  45.5954 0009404 217.4449 142.6070 14.14013709682617
FENGYUN 3A              
1 32958U 08026A   20027.16206393  .00000004  00000-0  21553-4 0  9998
2 32958  98.3935  20.3569 0009572  35.6719 324.5094 14.18617022604655
FENGYUN 2E              
1 33463U 08066A   20027.15188168 -.00000209  00000-0  00000+0 0  9999
2 33463   4.0464  68.8877 0004754 282.2598 276.1880  1.00267611 40694
NOAA 19                 
1 33591U 09005A   20027.13192508  .00000018  00000-0  34858-4 0  9996
2 33591  99.1934  28.7882 0014835 113.4103 246.8630 14.12393260565306
GOES 14                 
1 35491U 09033A   20027.17609663 -.00000099  00000-0  00000+0 0  9994
2 35491   0.0450 266.0145 0010942 327.6198 211.4700  1.00272038 38761
METEOR-M 1              
1 35865U 09049A   20026.98483289  .00000007  00000-0  21932-4 0  9998
2 35865  98.4271  20.1710 0001323 228.5480 131.5585 14.22224322537668
DMSP 5D-3 F18 (USA 210) 
1 35951U 09057A   20026.87718602  .00000035  00000-0  41183-4 0  9992
2 35951  98.6346  21.6385 0011998  58.3148 301.9193 14.13243137529879
GOES 15                 
1 36411U 10008A   20026.75096527  .00000049  00000-0  00000+0 0  9997
2 36411   0.0694 260.1026 0001229 237.0577 130.3168  1.00277549 36262
COMS 1                  
1 36744U 10032A   20026.80208559 -.00000350  00000-0  00000+0 0  9995
2 36744   0.0257 131.6620 0000839 215.2241 195.5460  1.00272255 35255
FENGYUN 3B              
1 37214U 10059A   20027.17312622 -.00000008  00000-0  19436-4 0  9993
2 37214  99.0293   6.8359 0016391 313.1500  46.8299 14.15937228477542
SUOMI NPP               
1 37849U 11061A   20027.17413514  .00000008  00000-0  24300-4 0  9998
2 37849  98.7244 327.1052 0000836  69.4577  42.2602 14.19541554427437
FENGYUN 2F              
1 38049U 12002A   20026.87065311 -.00000364  00000-0  00000+0 0  9993
2 38049   1.7389  83.5101 0002804  17.2114  90.3495  1.00278711 29493
METEOSAT-10 (MSG-3)     
1 38552U 12035B   20026.33452037  .00000057  00000-0  00000-0 0  9993
2 38552   1.0140 357.9765 0000399 256.4801   0.5869  1.00269552 27489
METOP-B                 
1 38771U 12049A   20027.16264973 -.00000001  00000-0  19761-4 0  9991
2 38771  98.7133  88.4988 0001961  79.0957 339.4545 14.21484434381806
FENGYUN 3C              
1 39260U 13052A   20027.15657318 -.00000013  00000-0  14631-4 0  9992
2 39260  98.5732  83.0788 0010032 263.8381  96.1651 14.15830483328487
METEOR-M 2              
1 40069U 14037A   20027.13553852 -.00000007  00000-0  16403-4 0  9993
2 40069  98.5237  69.9123 0005295 347.0741  13.0310 14.20669521288004
HIMAWARI-8              
1 40267U 14060A   20026.87641069 -.00000282  00000-0  00000-0 0  9994
2 40267   0.0371 184.5881 0000858 137.9637 259.2254  1.00270952 19368
FENGYUN 2G              
1 40367U 14090A   20026.93997010 -.00000305  00000-0  00000-0 0  9991
2 40367   1.7477  96.7588 0003967 307.2408 159.3220  1.00262514 18642
METEOSAT-11 (MSG-4)     
1 40732U 15034A   20026.84849515 -.00000002  00000-0  00000-0 0  9996
2 40732   0.6058 235.5784 0000700 133.0839  63.0453  1.00281666 16643
ELEKTRO-L 2             
1 41105U 15074A   20027.23764535 -.00000101  00000-0  00000+0 0  9996
2 41105   0.8645  99.8010 0001066 262.8797 284.8199  1.00270558 15125
HIMAWARI-9              
1 41836U 16064A   20026.87641069 -.00000281  00000-0  00000-0 0  9992
2 41836   0.0143  44.0668 0000843 238.0572 299.7404  1.00273032 11793
GOES 16                 
1 41866U 16071A   20026.35623750 -.00000255  00000-0  00000+0 0  9993
2 41866   0.0423  95.9701 0000428 266.2788 175.8875  1.00273088 11709
FENGYUN 4A              
1 41882U 16077A   20026.94101693 -.00000336  00000-0  00000-0 0  9990
2 41882   0.0292  21.2396 0004474  72.9600 114.8943  1.00274575 11580
CYGFM05                 
1 41884U 16078A   20026.90625356  .00000190  00000-0  11805-4 0  9992
2 41884  34.9553 225.3646 0016379 215.6267 144.3352 15.14537372172481
CYGFM04                 
1 41885U 16078B   20026.92462578  .00000208  00000-0  12526-4 0  9991
2 41885  34.9485 219.2154 0014847 224.7149 135.2365 15.15043543172543
CYGFM02                 
1 41886U 16078C   20026.91747171  .00000203  00000-0  12319-4 0  9991
2 41886  34.9577 220.8929 0015565 221.0389 138.9152 15.15046319172535
CYGFM01                 
1 41887U 16078D   20026.92323008  .00000184  00000-0  11512-4 0  9994
2 41887  34.9521 226.1769 0016868 216.5912 143.3648 15.14351385172478
CYGFM08                 
1 41888U 16078E   20026.95407348  .00000197  00000-0  12072-4 0  9994
2 41888  34.9491 222.3654 0016076 222.7179 137.2283 15.14763897172507
CYGFM06                 
1 41889U 16078F   20026.89573771  .00000198  00000-0  12036-4 0  9993
2 41889  34.9571 219.7141 0014497 221.0390 138.9231 15.15037825172530
CYGFM07                 
1 41890U 16078G   20026.94003802  .00000195  00000-0  11894-4 0  9992
2 41890  34.9508 218.5984 0014293 224.2539 135.7030 15.15037858172547
CYGFM03                 
1 41891U 16078H   20026.86914755  .00000200  00000-0  12141-4 0  9995
2 41891  34.9541 219.2438 0013747 222.7567 137.2076 15.15034940172539
FENGYUN 3D              
1 43010U 17072A   20027.07851135 -.00000020  00000-0  11091-4 0  9995
2 43010  98.7377 328.1374 0002284 106.6094 253.5334 14.19735005113994
NOAA 20                 
1 43013U 17073A   20027.18800055 -.00000009  00000-0  16553-4 0  9991
2 43013  98.7444 327.1840 0001340  70.5645 289.5676 14.19538289113478
GOES 17                 
1 43226U 18022A   20026.74424475  .00000092  00000-0  00000-0 0  9998
2 43226   0.0297 100.0730 0000249 239.8271 276.2834  1.00271779  7019
FENGYUN 2H              
1 43491U 18050A   20026.91828236 -.00000134  00000-0  00000-0 0  9993
2 43491   0.9934 277.8943 0001192 248.6204   8.9149  1.00274150  6116
METOP-C                 
1 43689U 18087A   20026.83807975 -.00000044  00000-0  00000-0 0  9990
2 43689  98.7190  88.3618 0003754  53.4990 306.6532 14.21690328 63335
GEO-KOMPSAT-2A          
1 43823U 18100A   20027.01743569 -.00000349  00000-0  00000+0 0  9992
2 43823   0.0254 168.7898 0000526 266.5871 184.8899  1.00273357  4265
IOD-1 GEMS              
1 44385U 98067QK  20026.27326303  .00009346  00000-0  13879-3 0  9993
2 44385  51.6420 330.4708 0003502 140.2809 219.8439 15.55953403 32161
METEOR-M2 2             
1 44387U 19038A   20027.11915737 -.00000030  00000-0  55769-5 0  9993
2 44387  98.6005 350.1379 0000512 343.0053  17.1109 14.23675477 29286